[{"OBJECT_NAME":"LYNK TOWER 5","OBJECT_ID":"2024-043Z","EPOCH":"2026-03-09T22:11:51.175104","MEAN_MOTION":15.29454506,"ECCENTRICITY":0.00104056,"INCLINATION":97.5458,"RA_OF_ASC_NODE":204.7305,"ARG_OF_PERICENTER":234.6422,"MEAN_ANOMALY":125.3846,"EPHEMERIS_TYPE":0,"CLASSIFICATION_TYPE":"U","NORAD_CAT_ID":59121,"ELEMENT_SET_NO":999,"REV_AT_EPOCH":11186,"BSTAR":0.00031901545,"MEAN_MOTION_DOT":9.048e-5,"MEAN_MOTION_DDOT":0},{"OBJECT_NAME":"STARLINK-33751","OBJECT_ID":"2025-071V","EPOCH":"2026-03-09T11:14:05.601696","MEAN_MOTION":15.30178554,"ECCENTRICITY":0.00011972,"INCLINATION":53.1592,"RA_OF_ASC_NODE":141.0777,"ARG_OF_PERICENTER":85.3209,"MEAN_ANOMALY":274.7928,"EPHEMERIS_TYPE":0,"CLASSIFICATION_TYPE":"U","NORAD_CAT_ID":63512,"ELEMENT_SET_NO":999,"REV_AT_EPOCH":5271,"BSTAR":0.000930156,"MEAN_MOTION_DOT":0.00027272,"MEAN_MOTION_DDOT":0}]
